     3.00           N                   E                   RINEX VERSION / TYPE
BRD_USR             ESA                 20190112 091752  UTCPGM / RUN BY / DATE
 GAL   4.0250E+01  4.2969E-02 -8.8501E-04  0.0000E+00       IONOSPHERIC CORR
GAUT  2.7939677238E-09-1.776356839E-15 518400 2035 GSTB   0 TIME SYSTEM CORR
GPGA  2.1827872843E-09 1.199040867E-14 518400 2035 GSTB   0 TIME SYSTEM CORR
                                                            END OF HEADER
E18 2019 01 12 07 00 00 5.612484645098E-03-2.846434199455E-11 0.000000000000E+00
     1.000000000000E+01 3.187500000000E+00 2.037227715854E-09 1.069287263581E+00
    -5.960464477539E-07 1.663108910434E-01 6.489455699921E-06 5.289366859436E+03
     5.436000000000E+05 5.472451448441E-06-1.448452710189E+00-1.490116119385E-07
     8.818494861250E-01 1.934687500000E+02 1.441593562764E+00-2.232235838726E-09
    -1.428630936784E-11 2.580000000000E+02 2.035000000000E+03 0.000000000000E+00
     3.120000000000E+00 5.600000000000E+01 1.420266926289E-08 0.000000000000E+00
     5.443000000000E+05 0.000000000000E+00 0.000000000000E+00 0.000000000000E+00
E19 2019 01 12 07 00 00-9.184062946588E-06 3.268496584496E-13 0.000000000000E+00
     1.000000000000E+01-5.937500000000E+00 3.030840532388E-09 1.437042281253E+00
    -2.831220626831E-07 1.321838935837E-04 1.202523708344E-05 5.440626430511E+03
     5.436000000000E+05 1.862645149231E-08 1.238294224771E+00 3.352761268616E-08
     9.582183990368E-01 7.990625000000E+01 2.383487751958E+00-5.499871948885E-09
     1.010756387775E-10 2.580000000000E+02 2.035000000000E+03 0.000000000000E+00
     3.120000000000E+00 0.000000000000E+00-8.614733815193E-09 0.000000000000E+00
     5.443000000000E+05 0.000000000000E+00 0.000000000000E+00 0.000000000000E+00
E21 2019 01 12 07 00 00-5.140216671862E-04-1.804778548831E-12 0.000000000000E+00
     1.000000000000E+01-2.531250000000E+00 2.724042038714E-09 2.213262333614E+00
    -1.490116119385E-08 4.753086250275E-05 7.223337888718E-06 5.440626274109E+03
     5.436000000000E+05-4.097819328308E-08-2.951668790224E+00 3.725290298462E-08
     9.897110958855E-01 1.980937500000E+02 2.397661479539E-01-5.462370386795E-09
    -3.171560679661E-10 2.580000000000E+02 2.035000000000E+03 0.000000000000E+00
     3.120000000000E+00 0.000000000000E+00-2.328306436539E-09 0.000000000000E+00
     5.443000000000E+05 0.000000000000E+00 0.000000000000E+00 0.000000000000E+00
E24 2019 01 12 07 00 00 6.290264194831E-03-1.971045548999E-11 0.000000000000E+00
     1.000000000000E+01-4.281250000000E+00 2.825117677491E-09-4.184073170756E-01
    -1.247972249985E-07 4.803646588698E-04 6.869435310364E-06 5.440610570908E+03
     5.436000000000E+05 2.980232238770E-08-2.945599350848E+00 1.490116119385E-08
     9.877162037388E-01 2.045625000000E+02 4.945831979468E-01-5.497371844746E-09
    -3.135844906242E-10 2.580000000000E+02 2.035000000000E+03 0.000000000000E+00
     3.120000000000E+00 0.000000000000E+00 4.284083843231E-08 0.000000000000E+00
     5.443000000000E+05 0.000000000000E+00 0.000000000000E+00 0.000000000000E+00
E25 2019 01 12 07 00 00 1.926305994857E-03-1.136868377216E-11 0.000000000000E+00
     1.000000000000E+01-1.875000000000E-01 2.802616740237E-09 6.377145937268E-01
     6.519258022308E-08 1.912302104756E-04 6.562098860741E-06 5.440621282578E+03
     5.436000000000E+05 5.587935447693E-08-2.951678145585E+00 5.587935447693E-09
     9.897166637517E-01 2.095625000000E+02-1.324695775742E+00-5.485942797252E-09
    -2.953694461802E-10 2.580000000000E+02 2.035000000000E+03 0.000000000000E+00
     3.120000000000E+00 0.000000000000E+00-1.396983861923E-09 0.000000000000E+00
     5.443000000000E+05 0.000000000000E+00 0.000000000000E+00 0.000000000000E+00
E26 2019 01 12 07 00 00 5.029157502577E-03-4.331468517194E-11 0.000000000000E+00
     1.000000000000E+01 2.590625000000E+01 3.135844906242E-09 2.356472920076E+00
     1.203268766403E-06 3.198424819857E-04 3.343448042870E-06 5.440605813980E+03
     5.436000000000E+05 2.793967723846E-08-8.601418708757E-01 1.862645149231E-08
     9.782783091726E-01 2.790000000000E+02-2.007462284919E+00-5.781669401166E-09
     2.114373786441E-10 2.580000000000E+02 2.035000000000E+03 0.000000000000E+00
     3.120000000000E+00 0.000000000000E+00 1.164153218269E-09 0.000000000000E+00
     5.443000000000E+05 0.000000000000E+00 0.000000000000E+00 0.000000000000E+00
E27 2019 01 12 07 00 00 5.513915675692E-04-7.673861546209E-12 0.000000000000E+00
     1.000000000000E+01 1.000000000000E+00 2.710470044814E-09-2.207209372547E+00
     7.450580596924E-08 1.879073679447E-04 7.236376404762E-06 5.440626874924E+03
     5.436000000000E+05-3.725290298462E-08-2.951652503557E+00 7.450580596924E-09
     9.896838080745E-01 1.992500000000E+02-8.360814166841E-01-5.445941131022E-09
    -3.107272287506E-10 2.580000000000E+02 2.035000000000E+03 0.000000000000E+00
     3.120000000000E+00 0.000000000000E+00-2.793967723846E-09 0.000000000000E+00
     5.443000000000E+05 0.000000000000E+00 0.000000000000E+00 0.000000000000E+00
E30 2019 01 12 07 00 00 5.195132282097E-03-3.049649421882E-11 0.000000000000E+00
     1.000000000000E+01-4.218750000000E+00 2.795473585553E-09-2.848412045738E+00
    -2.384185791016E-07 3.115878207609E-04 7.199123501778E-06 5.440615993500E+03
     5.436000000000E+05-1.303851604462E-08-2.945654751555E+00-3.166496753693E-08
     9.876999390156E-01 1.994687500000E+02 5.708894555402E-01-5.481656904441E-09
    -2.964409193827E-10 2.580000000000E+02 2.035000000000E+03 0.000000000000E+00
     3.120000000000E+00 0.000000000000E+00-3.026798367500E-09 0.000000000000E+00
     5.443000000000E+05 0.000000000000E+00 0.000000000000E+00 0.000000000000E+00
E31 2019 01 12 07 00 00 9.347436716780E-04-9.706013770483E-12 0.000000000000E+00
     1.000000000000E+01 1.218750000000E+00 2.802616740237E-09 2.396018071016E+00
     3.352761268616E-08 2.286623930559E-04 7.033348083496E-06 5.440622783661E+03
     5.436000000000E+05 9.313225746155E-09-2.951701006606E+00 1.303851604462E-08
     9.896868904429E-01 2.025625000000E+02-1.512281446901E+00-5.464513333200E-09
    -3.507288949806E-10 2.580000000000E+02 2.035000000000E+03 0.000000000000E+00
     3.120000000000E+00 0.000000000000E+00-2.328306436539E-10 0.000000000000E+00
     5.443000000000E+05 0.000000000000E+00 0.000000000000E+00 0.000000000000E+00
E24 2019 01 12 07 00 00 6.290269491728E-03-1.971045548999E-11 0.000000000000E+00
     1.000000000000E+01-4.281250000000E+00 2.825117677491E-09-4.184073170756E-01
    -1.247972249985E-07 4.803646588698E-04 6.869435310364E-06 5.440610570908E+03
     5.436000000000E+05 2.980232238770E-08-2.945599350848E+00 1.490116119385E-08
     9.877162037388E-01 2.045625000000E+02 4.945831979468E-01-5.497371844746E-09
    -3.135844906242E-10 5.210000000000E+02 2.035000000000E+03 0.000000000000E+00
     3.120000000000E+00 0.000000000000E+00 4.284083843231E-08 4.796311259270E-08
     5.443450000000E+05 0.000000000000E+00 0.000000000000E+00 0.000000000000E+00
E21 2019 01 12 07 00 00-5.140220164321E-04-1.804778548831E-12 0.000000000000E+00
     1.000000000000E+01-2.531250000000E+00 2.724042038714E-09 2.213262333614E+00
    -1.490116119385E-08 4.753086250275E-05 7.223337888718E-06 5.440626274109E+03
     5.436000000000E+05-4.097819328308E-08-2.951668790224E+00 3.725290298462E-08
     9.897110958855E-01 1.980937500000E+02 2.397661479539E-01-5.462370386795E-09
    -3.171560679661E-10 5.210000000000E+02 2.035000000000E+03 0.000000000000E+00
     3.120000000000E+00 0.000000000000E+00-2.328306436539E-09-3.026798367500E-09
     5.443750000000E+05 0.000000000000E+00 0.000000000000E+00 0.000000000000E+00
E24 2019 01 12 07 00 00 6.290264194831E-03-1.971045548999E-11 0.000000000000E+00
     1.000000000000E+01-4.281250000000E+00 2.825117677491E-09-4.184073170756E-01
    -1.247972249985E-07 4.803646588698E-04 6.869435310364E-06 5.440610570908E+03
     5.436000000000E+05 2.980232238770E-08-2.945599350848E+00 1.490116119385E-08
     9.877162037388E-01 2.045625000000E+02 4.945831979468E-01-5.497371844746E-09
    -3.135844906242E-10 2.580000000000E+02 2.035000000000E+03 0.000000000000E+00
     3.120000000000E+00 0.000000000000E+00 4.284083843231E-08 0.000000000000E+00
     5.444000000000E+05 0.000000000000E+00 0.000000000000E+00 0.000000000000E+00
E07 2019 01 12 07 00 00-1.110396115109E-04-7.077005648171E-12 0.000000000000E+00
     1.000000000000E+01-9.281250000000E+00 3.146559638267E-09-9.610547441077E-01
    -4.954636096954E-07 1.358960289508E-04 1.106038689613E-05 5.440620491028E+03
     5.436000000000E+05 1.862645149231E-08 1.241555584116E+00-1.862645149231E-08
     9.524901735989E-01 1.017500000000E+02-1.014343216038E-02-5.513086785051E-09
     7.107438910502E-11 5.210000000000E+02 2.035000000000E+03 0.000000000000E+00
     3.120000000000E+00 0.000000000000E+00 2.328306436539E-10 0.000000000000E+00
     5.444350000000E+05 0.000000000000E+00 0.000000000000E+00 0.000000000000E+00
E07 2019 01 12 07 00 00-1.110396115109E-04-7.077005648171E-12 0.000000000000E+00
     1.000000000000E+01-9.281250000000E+00 3.146559638267E-09-9.610547441077E-01
    -4.954636096954E-07 1.358960289508E-04 1.106038689613E-05 5.440620491028E+03
     5.436000000000E+05 1.862645149231E-08 1.241555584116E+00-1.862645149231E-08
     9.524901735989E-01 1.017500000000E+02-1.014343216038E-02-5.513086785051E-09
     7.107438910502E-11 2.580000000000E+02 2.035000000000E+03 0.000000000000E+00
     3.120000000000E+00 0.000000000000E+00 2.328306436539E-10 0.000000000000E+00
     5.444500000000E+05 0.000000000000E+00 0.000000000000E+00 0.000000000000E+00
